[{"OBJECT_NAME":"ONEWEB-0575","OBJECT_ID":"2023-043U","EPOCH":"2026-01-18T14:16:11.545248","MEAN_MOTION":13.16594955,"ECCENTRICITY":0.00019164,"INCLINATION":87.9027,"RA_OF_ASC_NODE":258.5534,"ARG_OF_PERICENTER":77.0523,"MEAN_ANOMALY":283.0822,"EPHEMERIS_TYPE":0,"CLASSIFICATION_TYPE":"U","NORAD_CAT_ID":56064,"ELEMENT_SET_NO":999,"REV_AT_EPOCH":13928,"BSTAR":3.0209542e-5,"MEAN_MOTION_DOT":2.4e-7,"MEAN_MOTION_DDOT":0},{"OBJECT_NAME":"ONEWEB-0576","OBJECT_ID":"2023-043V","EPOCH":"2026-01-18T15:38:16.331424","MEAN_MOTION":13.16595703,"ECCENTRICITY":0.00017156,"INCLINATION":87.9033,"RA_OF_ASC_NODE":258.5443,"ARG_OF_PERICENTER":78.6424,"MEAN_ANOMALY":281.49,"EPHEMERIS_TYPE":0,"CLASSIFICATION_TYPE":"U","NORAD_CAT_ID":56065,"ELEMENT_SET_NO":999,"REV_AT_EPOCH":13928,"BSTAR":0.00014747738,"MEAN_MOTION_DOT":6.9e-7,"MEAN_MOTION_DDOT":0},{"OBJECT_NAME":"ONEWEB-0577","OBJECT_ID":"2023-043W","EPOCH":"2026-01-18T15:47:23.355744","MEAN_MOTION":13.16595415,"ECCENTRICITY":0.00021945,"INCLINATION":87.9028,"RA_OF_ASC_NODE":258.542,"ARG_OF_PERICENTER":68.6163,"MEAN_ANOMALY":291.5202,"EPHEMERIS_TYPE":0,"CLASSIFICATION_TYPE":"U","NORAD_CAT_ID":56066,"ELEMENT_SET_NO":999,"REV_AT_EPOCH":13931,"BSTAR":0.00027889485,"MEAN_MOTION_DOT":1.19e-6,"MEAN_MOTION_DDOT":0},{"OBJECT_NAME":"ONEWEB-0578","OBJECT_ID":"2023-043X","EPOCH":"2026-01-18T14:28:05.647296","MEAN_MOTION":13.21844082,"ECCENTRICITY":0.00021011,"INCLINATION":87.9179,"RA_OF_ASC_NODE":273.8117,"ARG_OF_PERICENTER":89.2973,"MEAN_ANOMALY":270.8402,"EPHEMERIS_TYPE":0,"CLASSIFICATION_TYPE":"U","NORAD_CAT_ID":56067,"ELEMENT_SET_NO":999,"REV_AT_EPOCH":13847,"BSTAR":0.0050356264,"MEAN_MOTION_DOT":2.094e-5,"MEAN_MOTION_DDOT":0},{"OBJECT_NAME":"ONEWEB-0579","OBJECT_ID":"2023-043Y","EPOCH":"2026-01-18T16:02:54.206016","MEAN_MOTION":13.21825349,"ECCENTRICITY":0.00014114,"INCLINATION":87.9218,"RA_OF_ASC_NODE":273.7884,"ARG_OF_PERICENTER":66.9721,"MEAN_ANOMALY":293.1562,"EPHEMERIS_TYPE":0,"CLASSIFICATION_TYPE":"U","NORAD_CAT_ID":56068,"ELEMENT_SET_NO":999,"REV_AT_EPOCH":13849,"BSTAR":5.4968359e-5,"MEAN_MOTION_DOT":3.6e-7,"MEAN_MOTION_DDOT":0},{"OBJECT_NAME":"ONEWEB-0581","OBJECT_ID":"2023-043Z","EPOCH":"2026-01-18T15:56:30.524352","MEAN_MOTION":13.16595475,"ECCENTRICITY":0.00018301,"INCLINATION":87.9028,"RA_OF_ASC_NODE":258.5534,"ARG_OF_PERICENTER":68.8603,"MEAN_ANOMALY":291.2724,"EPHEMERIS_TYPE":0,"CLASSIFICATION_TYPE":"U","NORAD_CAT_ID":56069,"ELEMENT_SET_NO":999,"REV_AT_EPOCH":13928,"BSTAR":0.00012121521,"MEAN_MOTION_DOT":5.9e-7,"MEAN_MOTION_DDOT":0},{"OBJECT_NAME":"ONEWEB-0609","OBJECT_ID":"2023-043AA","EPOCH":"2026-01-18T15:43:16.398624","MEAN_MOTION":13.1554913,"ECCENTRICITY":0.00015163,"INCLINATION":87.9007,"RA_OF_ASC_NODE":289.0663,"ARG_OF_PERICENTER":75.5827,"MEAN_ANOMALY":284.5472,"EPHEMERIS_TYPE":0,"CLASSIFICATION_TYPE":"U","NORAD_CAT_ID":56070,"ELEMENT_SET_NO":999,"REV_AT_EPOCH":13677,"BSTAR":0.00018355126,"MEAN_MOTION_DOT":8.2e-7,"MEAN_MOTION_DDOT":0},{"OBJECT_NAME":"ONEWEB-0613","OBJECT_ID":"2023-043AB","EPOCH":"2026-01-18T15:36:25.936416","MEAN_MOTION":13.15548783,"ECCENTRICITY":0.00013576,"INCLINATION":87.9006,"RA_OF_ASC_NODE":289.0788,"ARG_OF_PERICENTER":68.472,"MEAN_ANOMALY":291.6555,"EPHEMERIS_TYPE":0,"CLASSIFICATION_TYPE":"U","NORAD_CAT_ID":56071,"ELEMENT_SET_NO":999,"REV_AT_EPOCH":13677,"BSTAR":0.00023797348,"MEAN_MOTION_DOT":1.02e-6,"MEAN_MOTION_DDOT":0},{"OBJECT_NAME":"ONEWEB-0630","OBJECT_ID":"2023-043AC","EPOCH":"2026-01-18T15:29:34.982592","MEAN_MOTION":13.15549308,"ECCENTRICITY":0.00013725,"INCLINATION":87.9005,"RA_OF_ASC_NODE":289.0505,"ARG_OF_PERICENTER":66.6663,"MEAN_ANOMALY":293.4611,"EPHEMERIS_TYPE":0,"CLASSIFICATION_TYPE":"U","NORAD_CAT_ID":56072,"ELEMENT_SET_NO":999,"REV_AT_EPOCH":13676,"BSTAR":0.0003983235,"MEAN_MOTION_DOT":1.63e-6,"MEAN_MOTION_DDOT":0},{"OBJECT_NAME":"ONEWEB-0632","OBJECT_ID":"2023-043AD","EPOCH":"2026-01-18T15:22:42.792384","MEAN_MOTION":13.1554778,"ECCENTRICITY":0.00017173,"INCLINATION":87.9002,"RA_OF_ASC_NODE":289.0686,"ARG_OF_PERICENTER":69.6109,"MEAN_ANOMALY":290.5206,"EPHEMERIS_TYPE":0,"CLASSIFICATION_TYPE":"U","NORAD_CAT_ID":56073,"ELEMENT_SET_NO":999,"REV_AT_EPOCH":13676,"BSTAR":-0.00080629902,"MEAN_MOTION_DOT":-2.91e-6,"MEAN_MOTION_DDOT":0},{"OBJECT_NAME":"ONEWEB-0633","OBJECT_ID":"2023-043AE","EPOCH":"2026-01-18T11:34:33.572928","MEAN_MOTION":13.15549321,"ECCENTRICITY":0.00012018,"INCLINATION":87.9007,"RA_OF_ASC_NODE":289.0639,"ARG_OF_PERICENTER":71.3041,"MEAN_ANOMALY":288.8219,"EPHEMERIS_TYPE":0,"CLASSIFICATION_TYPE":"U","NORAD_CAT_ID":56074,"ELEMENT_SET_NO":999,"REV_AT_EPOCH":13672,"BSTAR":-7.0476408e-5,"MEAN_MOTION_DOT":-1.4e-7,"MEAN_MOTION_DDOT":0},{"OBJECT_NAME":"ONEWEB-0634","OBJECT_ID":"2023-043AF","EPOCH":"2026-01-18T11:14:01.637664","MEAN_MOTION":13.1554896,"ECCENTRICITY":0.00015464,"INCLINATION":87.9011,"RA_OF_ASC_NODE":289.1182,"ARG_OF_PERICENTER":86.9939,"MEAN_ANOMALY":273.1369,"EPHEMERIS_TYPE":0,"CLASSIFICATION_TYPE":"U","NORAD_CAT_ID":56075,"ELEMENT_SET_NO":999,"REV_AT_EPOCH":13671,"BSTAR":-0.00059926294,"MEAN_MOTION_DOT":-2.13e-6,"MEAN_MOTION_DDOT":0},{"OBJECT_NAME":"ONEWEB-0635","OBJECT_ID":"2023-043AG","EPOCH":"2026-01-18T11:07:10.427232","MEAN_MOTION":13.1554921,"ECCENTRICITY":0.00018392,"INCLINATION":87.9009,"RA_OF_ASC_NODE":289.0721,"ARG_OF_PERICENTER":68.65,"MEAN_ANOMALY":291.4827,"EPHEMERIS_TYPE":0,"CLASSIFICATION_TYPE":"U","NORAD_CAT_ID":56076,"ELEMENT_SET_NO":999,"REV_AT_EPOCH":13674,"BSTAR":-0.00043283001,"MEAN_MOTION_DOT":-1.5e-6,"MEAN_MOTION_DDOT":0},{"OBJECT_NAME":"ONEWEB-0636","OBJECT_ID":"2023-043AH","EPOCH":"2026-01-18T10:55:45.314112","MEAN_MOTION":13.15550816,"ECCENTRICITY":0.00018189,"INCLINATION":87.9003,"RA_OF_ASC_NODE":289.0901,"ARG_OF_PERICENTER":70.464,"MEAN_ANOMALY":289.6687,"EPHEMERIS_TYPE":0,"CLASSIFICATION_TYPE":"U","NORAD_CAT_ID":56077,"ELEMENT_SET_NO":999,"REV_AT_EPOCH":13672,"BSTAR":-0.0001487389,"MEAN_MOTION_DOT":-4.3e-7,"MEAN_MOTION_DDOT":0},{"OBJECT_NAME":"ONEWEB-0637","OBJECT_ID":"2023-043AJ","EPOCH":"2026-01-18T10:46:39.819072","MEAN_MOTION":13.15546538,"ECCENTRICITY":0.00018676,"INCLINATION":87.9007,"RA_OF_ASC_NODE":289.1086,"ARG_OF_PERICENTER":78.5592,"MEAN_ANOMALY":281.5748,"EPHEMERIS_TYPE":0,"CLASSIFICATION_TYPE":"U","NORAD_CAT_ID":56078,"ELEMENT_SET_NO":999,"REV_AT_EPOCH":13674,"BSTAR":2.9597423e-5,"MEAN_MOTION_DOT":2.4e-7,"MEAN_MOTION_DDOT":0},{"OBJECT_NAME":"ONEWEB-0647","OBJECT_ID":"2023-043AK","EPOCH":"2026-01-18T10:39:48.364128","MEAN_MOTION":13.15549971,"ECCENTRICITY":0.00016287,"INCLINATION":87.9006,"RA_OF_ASC_NODE":289.1226,"ARG_OF_PERICENTER":69.1491,"MEAN_ANOMALY":290.9814,"EPHEMERIS_TYPE":0,"CLASSIFICATION_TYPE":"U","NORAD_CAT_ID":56079,"ELEMENT_SET_NO":999,"REV_AT_EPOCH":13673,"BSTAR":0.00017168318,"MEAN_MOTION_DOT":7.7e-7,"MEAN_MOTION_DDOT":0}]
