ONEWEB-0575             
1 56064U 23043U   26018.59457807  .00000024  00000+0  30210-4 0  9990
2 56064  87.9027 258.5534 0001916  77.0523 283.0822 13.16594955139285
ONEWEB-0576             
1 56065U 23043V   26018.65157791  .00000069  00000+0  14748-3 0  9993
2 56065  87.9033 258.5443 0001715  78.6424 281.4900 13.16595703139287
ONEWEB-0577             
1 56066U 23043W   26018.65790921  .00000119  00000+0  27889-3 0  9998
2 56066  87.9028 258.5420 0002194  68.6163 291.5202 13.16595415139319
ONEWEB-0578             
1 56067U 23043X   26018.60284314  .00002094  00000+0  50356-2 0  9996
2 56067  87.9179 273.8117 0002101  89.2973 270.8402 13.21844082138477
ONEWEB-0579             
1 56068U 23043Y   26018.66868294  .00000036  00000+0  54968-4 0  9997
2 56068  87.9218 273.7884 0001411  66.9721 293.1562 13.21825349138490
ONEWEB-0581             
1 56069U 23043Z   26018.66424218  .00000059  00000+0  12122-3 0  9992
2 56069  87.9028 258.5534 0001830  68.8603 291.2724 13.16595475139283
ONEWEB-0609             
1 56070U 23043AA  26018.65505091  .00000082  00000+0  18355-3 0  9992
2 56070  87.9007 289.0663 0001516  75.5827 284.5472 13.15549130136770
ONEWEB-0613             
1 56071U 23043AB  26018.65030019  .00000102  00000+0  23797-3 0  9995
2 56071  87.9006 289.0788 0001357  68.4720 291.6555 13.15548783136778
ONEWEB-0630             
1 56072U 23043AC  26018.64554378  .00000163  00000+0  39832-3 0  9998
2 56072  87.9005 289.0505 0001372  66.6663 293.4611 13.15549308136764
ONEWEB-0632             
1 56073U 23043AD  26018.64077306 -.00000291  00000+0 -80630-3 0  9996
2 56073  87.9002 289.0686 0001717  69.6109 290.5206 13.15547780136763
ONEWEB-0633             
1 56074U 23043AE  26018.48233302 -.00000014  00000+0 -70476-4 0  9990
2 56074  87.9007 289.0639 0001201  71.3041 288.8219 13.15549321136723
ONEWEB-0634             
1 56075U 23043AF  26018.46807451 -.00000213  00000+0 -59926-3 0  9998
2 56075  87.9011 289.1182 0001546  86.9939 273.1369 13.15548960136713
ONEWEB-0635             
1 56076U 23043AG  26018.46331513 -.00000150  00000+0 -43283-3 0  9999
2 56076  87.9009 289.0721 0001839  68.6500 291.4827 13.15549210136749
ONEWEB-0636             
1 56077U 23043AH  26018.45538558 -.00000043  00000+0 -14874-3 0  9992
2 56077  87.9003 289.0901 0001818  70.4640 289.6687 13.15550816136722
ONEWEB-0637             
1 56078U 23043AJ  26018.44907198  .00000024  00000+0  29597-4 0  9998
2 56078  87.9007 289.1086 0001867  78.5592 281.5748 13.15546538136748
ONEWEB-0647             
1 56079U 23043AK  26018.44430977  .00000077  00000+0  17168-3 0  9993
2 56079  87.9006 289.1226 0001628  69.1491 290.9814 13.15549971136734
